IRIDIUM 155             
1 43573U 18061E   23087.25572173  .00000626  00000+0  21629-3 0  9996
2 43573  86.4044 188.5349 0001887  99.3924 260.7486 14.34222450244660
IRIDIUM 154             
1 43574U 18061F   23087.37622727  .00000447  00000+0  15259-3 0  9994
2 43574  86.4046 188.5611 0002264  90.0472 270.0983 14.34220927244732
IRIDIUM 163             
1 43575U 18061G   23087.35720280  .00000265  00000+0  87466-4 0  9994
2 43575  86.4044 188.5207 0002306  98.6154 261.5303 14.34219880244704
IRIDIUM 156             
1 43576U 18061H   23087.33182274  .00000644  00000+0  22297-3 0  9999
2 43576  86.4046 188.5371 0002197 104.7292 255.4148 14.34226752244692
IRIDIUM 164             
1 43577U 18061J   23087.38257568  .00000713  00000+0  24750-3 0  9997
2 43577  86.4047 188.5380 0002341  95.2816 264.8647 14.34217148244744
IRIDIUM 159             
1 43578U 18061K   23087.35086097  .00000656  00000+0  22701-3 0  9992
2 43578  86.4044 188.5131 0002159  93.7155 266.4288 14.34221455244703
IRIDIUM 180             
1 43922U 19002A   23087.62943008  .00000445  00000+0  15193-3 0  9998
2 43922  86.3944 125.3580 0002405  91.9899 268.1572 14.34218894220397
IRIDIUM 176             
1 43923U 19002B   23087.57000893  .00001720  00000+0  26888-3 0  9999
2 43923  86.6078 125.4245 0002367  99.3893 260.7592 14.72259966226136
IRIDIUM 168             
1 43924U 19002C   23087.55331178  .00000479  00000+0  16404-3 0  9994
2 43924  86.3948 125.4339 0002311  89.8646 270.2814 14.34222389220328
IRIDIUM 173             
1 43925U 19002D   23087.47085723  .00000484  00000+0  16556-3 0  9992
2 43925  86.3944 125.4055 0002438  90.2241 269.9235 14.34224228220299
IRIDIUM 169             
1 43926U 19002E   23087.57729078  .00000630  00000+0  19957-3 0  9993
2 43926  86.4270 156.9441 0001739 237.5223 122.5807 14.38609096221069
IRIDIUM 172             
1 43927U 19002F   23087.60406021  .00000446  00000+0  15213-3 0  9994
2 43927  86.3944 125.3541 0002316  91.7018 268.4443 14.34217997220327
IRIDIUM 175             
1 43928U 19002G   23087.56355852  .00001756  00000+0  27454-3 0  9990
2 43928  86.1488 123.7976 0002408  97.7906 262.3584 14.72253386226124
IRIDIUM 171             
1 43929U 19002H   23087.09664539  .00000478  00000+0  16373-3 0  9992
2 43929  86.3953 125.7419 0002404  90.1596 269.9876 14.34223671220242
IRIDIUM 170             
1 43930U 19002J   23087.57618943  .00001706  00000+0  26653-3 0  9992
2 43930  86.6077 125.4270 0002431  96.1624 263.9870 14.72265339226146
IRIDIUM 167             
1 43931U 19002K   23087.57868715  .00000464  00000+0  15862-3 0  9997
2 43931  86.3944 125.3767 0002497  89.8297 270.3185 14.34220166220315
